TIANMU-1 07             
1 57399U 23101A   26065.57454230  .00008352  00000+0  29795-3 0  9991
2 57399  97.2728 118.5929 0004609 142.4105 217.7458 15.29118809145964
STARLINK-31510          
1 59575U 24076M   26068.17949132  .00002728  00000+0  10858-3 0  9991
2 59575  43.0034   8.5180 0000642 282.3748  77.7032 15.27587823106466
